ONEWEB-0456             
1 51646U 22012AA  26122.14705020  .00000462  00000+0  12884-2 0  9997
2 51646  87.8868  45.4098 0002012  75.1575 284.9776 13.10376101203319
ONEWEB-0457             
1 51647U 22012AB  26122.04737758  .00001806  00000+0  51335-2 0  9997
2 51647  87.8856  45.4532 0001292  77.0478 283.0794 13.10401535203301
ONEWEB-0458             
1 51648U 22012AC  26122.14539145  .00000371  00000+0  10252-2 0  9998
2 51648  87.8864  45.4174 0001996  82.3061 277.8293 13.10376009203279
ONEWEB-0461             
1 51649U 22012AD  26122.13583926  .00000163  00000+0  38557-3 0  9992
2 51649  87.9190  15.0051 0001671  81.7615 278.3706 13.17648712207828
ONEWEB-0463             
1 51650U 22012AE  26122.11727829  .00000063  00000+0  13035-3 0  9997
2 51650  87.9178  15.0359 0001649  81.1228 279.0090 13.17649934207603
ONEWEB-0464             
1 51651U 22012AF  26122.14206816  .00000160  00000+0  42220-3 0  9995
2 51651  87.8855  45.4437 0002195  76.7161 283.4211 13.10376346203294
ONEWEB-0468             
1 51652U 22012AG  26122.14872889  .00000244  00000+0  66337-3 0  9993
2 51652  87.8860  45.4363 0002185  74.0036 286.1332 13.10375628203274
ONEWEB-0473             
1 51653U 22012AH  26122.05740052 -.00000281  00000+0 -84204-3 0  9996
2 51653  87.8857  45.4564 0001988  79.3008 280.8343 13.10375609203262
ONEWEB-0474             
1 51654U 22012AJ  26122.04910206 -.00000567  00000+0 -16594-2 0  9999
2 51654  87.8867  45.4377 0002198  77.4238 282.7135 13.10374347203251
ONEWEB-0475             
1 51655U 22012AK  26122.12907593  .00000133  00000+0  30878-3 0  9993
2 51655  87.9178  15.0260 0002487  80.7599 279.3814 13.17651059207626
ONEWEB-0490             
1 54113U 22138A   26121.96216036  .00000074  00000+0  15349-3 0  9990
2 54113  87.9152 314.1827 0001860  82.9691 277.1653 13.19724533170731
ONEWEB-0492             
1 54114U 22138B   26122.06324740 -.00000009  00000+0 -54451-4 0  9993
2 54114  87.9144 314.1678 0001713  82.3226 277.8101 13.19725194170753
ONEWEB-0495             
1 54115U 22138C   26121.96532036  .00000066  00000+0  13347-3 0  9990
2 54115  87.9149 314.1895 0002169  72.2990 287.8379 13.19724569170722
ONEWEB-0497             
1 54116U 22138D   26121.97795390  .00000030  00000+0  42274-4 0  9999
2 54116  87.9150 314.1774 0001807  86.5220 273.6119 13.19724724170710
ONEWEB-0499             
1 54117U 22138E   26121.96136249  .00000074  00000+0  15152-3 0  9993
2 54117  87.9147 314.1918 0002012  84.4465 275.6897 13.19724059170721
ONEWEB-0500             
1 54118U 22138F   26121.96374382  .00000076  00000+0  15714-3 0  9992
2 54118  87.9151 314.1816 0001689  88.6334 271.4992 13.19724399170732
ONEWEB-0501             
1 54119U 22138G   26122.06956902  .00000044  00000+0  76449-4 0  9997
2 54119  87.9153 314.1601 0002000  82.5165 277.6195 13.19724297170729
ONEWEB-0502             
1 54120U 22138H   26121.97952839  .00000038  00000+0  62896-4 0  9997
2 54120  87.9156 314.1670 0002040  85.4179 274.7186 13.19725037170733
ONEWEB-0503             
1 54121U 22138J   26121.96847779  .00000068  00000+0  13836-3 0  9995
2 54121  87.9159 314.1739 0001967  94.9296 265.2061 13.19724885170721
ONEWEB-0504             
1 54122U 22138K   26121.95582528  .00000081  00000+0  17021-3 0  9998
2 54122  87.9155 314.1824 0002042  86.2942 273.8424 13.19723815170731
ONEWEB-0505             
1 54123U 22138L   26121.95266289  .00000096  00000+0  20666-3 0  9997
2 54123  87.9157 314.1838 0002171  79.9648 280.1730 13.19726449170719
ONEWEB-0506             
1 54124U 22138M   26122.07904229  .00000030  00000+0  41891-4 0  9997
2 54124  87.9156 314.1556 0001994  82.8388 277.2971 13.19724725170722
ONEWEB-0507             
1 54125U 22138N   26121.94793455  .00000093  00000+0  19970-3 0  9991
2 54125  87.9148 314.1981 0001897  82.7683 277.3665 13.19723967170756
ONEWEB-0508             
1 54126U 22138P   26122.09642150  .00000038  00000+0  61360-4 0  9994
2 54126  87.9148 314.1680 0001941  75.4353 284.6995 13.19724940170755
ONEWEB-0509             
1 54127U 22138Q   26122.07115235 -.00000003  00000+0 -38937-4 0  9990
2 54127  87.9159 314.1579 0001843  85.2883 274.8460 13.19724736170721
ONEWEB-0510             
1 54128U 22138R   26122.14712244  .00000106  00000+0  22755-3 0  9994
2 54128  87.9148 283.6214 0001720 111.4443 248.6874 13.20773647173205
ONEWEB-0511             
1 54129U 22138S   26122.06797758  .00000025  00000+0  30128-4 0  9993
2 54129  87.9156 314.1625 0002096  90.6839 269.4534 13.19727073170756
ONEWEB-0512             
1 54130U 22138T   26121.98427731  .00000009  00000+0 -90527-5 0  9999
2 54130  87.9146 314.1878 0002102  83.7482 276.3890 13.19725625170711
ONEWEB-0513             
1 54131U 22138U   26122.08462568 -.00000037  00000+0 -12504-3 0  9998
2 54131  87.9154 314.1173 0002755  83.3619 276.7827 13.20266090170634
ONEWEB-0514             
1 54132U 22138V   26122.07588219 -.00000017  00000+0 -74563-4 0  9992
2 54132  87.9152 314.1591 0001776  92.9833 267.1503 13.19724802170748
ONEWEB-0515             
1 54133U 22138W   26121.90719994 -.00000031  00000+0 -10823-3 0  9994
2 54133  87.9155 283.6615 0000996 113.0241 247.0997 13.20773563173196
ONEWEB-0516             
1 54134U 22138X   26121.97477963  .00000060  00000+0  11790-3 0  9993
2 54134  87.9146 314.1901 0001730  85.3561 274.7769 13.19724224170737
ONEWEB-0517             
1 54135U 22138Y   26121.95425723  .00000131  00000+0  29387-3 0  9999
2 54135  87.9149 314.1838 0002016  95.4848 264.6515 13.19724598170739
ONEWEB-0518             
1 54136U 22138Z   26121.97320031 -.00000112  00000+0 -31319-3 0  9997
2 54136  87.9145 314.1922 0001789  83.0808 277.0528 13.19724647170732
ONEWEB-0519             
1 54137U 22138AA  26122.07430075  .00000013  00000+0 -98030-6 0  9995
2 54137  87.9159 314.1577 0001981  93.1908 266.9451 13.19725625170752
ONEWEB-0520             
1 54138U 22138AB  26121.95742377  .00000047  00000+0  85050-4 0  9995
2 54138  87.9154 314.1828 0001925  81.2681 278.8669 13.19724658170726
ONEWEB-0521             
1 54139U 22138AC  26122.06639903 -.00000006  00000+0 -48462-4 0  9992
2 54139  87.9157 314.1490 0001910  95.6052 264.5298 13.19724696170687
ONEWEB-0522             
1 54140U 22138AD  26121.97005770  .00000085  00000+0  18060-3 0  9997
2 54140  87.9159 314.1701 0001918  85.8742 274.2610 13.19724417170712
ONEWEB-0523             
1 54141U 22138AE  26121.97035225  .00000003  00000+0 -25720-4 0  9999
2 54141  87.9149 283.6615 0001571 123.1960 236.9324 13.20770803173205
ONEWEB-0524             
1 54142U 22138AF  26122.18656322 -.00000050  00000+0 -15505-3 0  9993
2 54142  87.9147 283.6150 0000908  95.2173 264.9064 13.20769739173237
ONEWEB-0525             
1 54143U 22138AG  26122.06483096 -.00000018  00000+0 -78212-4 0  9996
2 54143  87.9154 314.1602 0001932  83.2213 276.9140 13.19724518170743
ONEWEB-0526             
1 54144U 22138AH  26122.09800043  .00000111  00000+0  24370-3 0  9992
2 54144  87.9155 314.1534 0001763  86.3938 273.7396 13.19725549170720
ONEWEB-0529             
1 54145U 22138AJ  26121.94952229  .00000136  00000+0  30692-3 0  9991
2 54145  87.9148 314.1958 0001884  81.5299 278.6047 13.19725368170720
ONEWEB-0531             
1 54146U 22138AK  26121.94508598  .00000085  00000+0  17667-3 0  9998
2 54146  87.9146 283.6617 0001220 122.6091 237.5160 13.20770545173207
ONEWEB-0535             
1 54147U 22138AL  26121.98269382  .00000005  00000+0 -19469-4 0  9994
2 54147  87.9155 314.1700 0001704  99.5322 260.6004 13.19724420170746
ONEWEB-0536             
1 54148U 22138AM  26122.15972590 -.00000118  00000+0 -32125-3 0  9996
2 54148  87.9135 283.6465 0001055 125.6707 234.4525 13.20771233173229
ONEWEB-0527             
1 54642U 22166A   26121.92024340 -.00000010  00000+0 -55625-4 0  9993
2 54642  87.9222 253.2052 0001833 100.1423 259.9917 13.21825980165427
ONEWEB-0528             
1 54643U 22166B   26121.85042587  .00000004  00000+0 -22667-4 0  9991
2 54643  87.9226 253.2234 0001895  92.5456 267.5895 13.21824682165420
ONEWEB-0539             
1 54644U 22166C   26122.11621220 -.00000114  00000+0 -30679-3 0  9993
2 54644  87.9230 253.1394 0002167 101.6044 258.5334 13.21827553165451
ONEWEB-0540             
1 54645U 22166D   26122.12307635 -.00000057  00000+0 -16951-3 0  9999
2 54645  87.9226 253.1715 0001989 102.3263 257.8093 13.21827220165440
ONEWEB-0542             
1 54646U 22166E   26122.12630250  .00000001  00000+0 -28522-4 0  9998
2 54646  87.9235 253.1354 0002193 103.4259 256.7120 13.21827553165454
ONEWEB-0545             
1 54647U 22166F   26121.86389456  .00000034  00000+0  51880-4 0  9996
2 54647  87.9225 253.2027 0002328 107.5381 252.6008 13.21825081165389
ONEWEB-0580             
1 54648U 22166G   26122.06574345  .00000091  00000+0  18997-3 0  9997
2 54648  87.9224 253.1628 0002135 109.4544 250.6821 13.21824696165453
ONEWEB-0582             
1 54649U 22166H   26122.10779110 -.00000133  00000+0 -35258-3 0  9998
2 54649  87.9225 253.1470 0002285 108.3126 251.8257 13.21826192165437
ONEWEB-0583             
1 54650U 22166J   26121.89248194 -.00000043  00000+0 -13447-3 0  9994
2 54650  87.9224 253.2133 0002002 102.6029 257.5329 13.21827730165411
ONEWEB-0584             
1 54651U 22166K   26122.06405120  .00000070  00000+0  13887-3 0  9995
2 54651  87.9222 253.1656 0001949 106.3021 253.8328 13.21824061165424
ONEWEB-0585             
1 54652U 22166L   26121.86051038  .00000105  00000+0  22249-3 0  9999
2 54652  87.9228 253.1911 0001777  95.9244 264.2093 13.21826348165407
ONEWEB-0586             
1 54653U 22166M   26122.10107822 -.00000002  00000+0 -36483-4 0  9995
2 54653  87.9227 253.1694 0002084 101.9221 258.2146 13.21824295165434
ONEWEB-0587             
1 54654U 22166N   26122.11115787  .00000029  00000+0  37730-4 0  9999
2 54654  87.9235 253.1365 0001618  92.1202 268.0117 13.21828143165591
